CCSDS_OMM_VERS = 2.0
CREATION_DATE  = 
ORIGINATOR     = 

OBJECT_NAME    = SL-16 R/B
OBJECT_ID      = 1993-016B
CENTER_NAME    = EARTH
REF_FRAME      = TEME
TIME_SYSTEM    = UTC
MEAN_ELEMENT_THEORY = SGP/SGP4

EPOCH          = 2025-12-31T03:39:01.706112
MEAN_MOTION    = 14.15295419
ECCENTRICITY   = .0008062
INCLINATION    = 71.0088
RA_OF_ASC_NODE = 359.1311
ARG_OF_PERICENTER = 60.4163
MEAN_ANOMALY   = 299.7762

EPHEMERIS_TYPE = 0
CLASSIFICATION_TYPE = U
NORAD_CAT_ID   = 22566
ELEMENT_SET_NO = 999
REV_AT_EPOCH   = 69247
BSTAR          = .49775E-4
MEAN_MOTION_DOT = .49E-6
MEAN_MOTION_DDOT = 0

CCSDS_OMM_VERS = 2.0
CREATION_DATE  = 
ORIGINATOR     = 

OBJECT_NAME    = COSMOS 2242
OBJECT_ID      = 1993-024A
CENTER_NAME    = EARTH
REF_FRAME      = TEME
TIME_SYSTEM    = UTC
MEAN_ELEMENT_THEORY = SGP/SGP4

EPOCH          = 2025-12-31T00:40:06.036960
MEAN_MOTION    = 14.96194735
ECCENTRICITY   = .0016516
INCLINATION    = 82.5191
RA_OF_ASC_NODE = 332.3636
ARG_OF_PERICENTER = 169.9922
MEAN_ANOMALY   = 190.1632

EPHEMERIS_TYPE = 0
CLASSIFICATION_TYPE = U
NORAD_CAT_ID   = 22626
ELEMENT_SET_NO = 999
REV_AT_EPOCH   = 77012
BSTAR          = .32612E-3
MEAN_MOTION_DOT = .371E-4
MEAN_MOTION_DDOT = 0

CCSDS_OMM_VERS = 2.0
CREATION_DATE  = 
ORIGINATOR     = 

OBJECT_NAME    = SL-16 R/B
OBJECT_ID      = 1993-059B
CENTER_NAME    = EARTH
REF_FRAME      = TEME
TIME_SYSTEM    = UTC
MEAN_ELEMENT_THEORY = SGP/SGP4

EPOCH          = 2025-12-30T20:55:13.462176
MEAN_MOTION    = 14.17219147
ECCENTRICITY   = .0018943
INCLINATION    = 70.9898
RA_OF_ASC_NODE = 156.2507
ARG_OF_PERICENTER = 310.0891
MEAN_ANOMALY   = 49.8571

EPHEMERIS_TYPE = 0
CLASSIFICATION_TYPE = U
NORAD_CAT_ID   = 22803
ELEMENT_SET_NO = 999
REV_AT_EPOCH   = 66978
BSTAR          = .77297E-4
MEAN_MOTION_DOT = .108E-5
MEAN_MOTION_DDOT = 0

CCSDS_OMM_VERS = 2.0
CREATION_DATE  = 
ORIGINATOR     = 

OBJECT_NAME    = ARIANE 40 R/B
OBJECT_ID      = 1993-061H
CENTER_NAME    = EARTH
REF_FRAME      = TEME
TIME_SYSTEM    = UTC
MEAN_ELEMENT_THEORY = SGP/SGP4

EPOCH          = 2025-12-31T04:39:11.950848
MEAN_MOTION    = 14.32815620
ECCENTRICITY   = .0011691
INCLINATION    = 98.5049
RA_OF_ASC_NODE = 70.3858
ARG_OF_PERICENTER = 124.5023
MEAN_ANOMALY   = 235.7267

EPHEMERIS_TYPE = 0
CLASSIFICATION_TYPE = U
NORAD_CAT_ID   = 22830
ELEMENT_SET_NO = 999
REV_AT_EPOCH   = 68429
BSTAR          = .20438E-3
MEAN_MOTION_DOT = .515E-5
MEAN_MOTION_DDOT = 0

CCSDS_OMM_VERS = 2.0
CREATION_DATE  = 
ORIGINATOR     = 

OBJECT_NAME    = COSMOS 2278
OBJECT_ID      = 1994-023A
CENTER_NAME    = EARTH
REF_FRAME      = TEME
TIME_SYSTEM    = UTC
MEAN_ELEMENT_THEORY = SGP/SGP4

EPOCH          = 2025-12-31T03:16:43.548096
MEAN_MOTION    = 14.14352026
ECCENTRICITY   = .0007568
INCLINATION    = 71.0539
RA_OF_ASC_NODE = 318.5204
ARG_OF_PERICENTER = 146.1756
MEAN_ANOMALY   = 213.9851

EPHEMERIS_TYPE = 0
CLASSIFICATION_TYPE = U
NORAD_CAT_ID   = 23087
ELEMENT_SET_NO = 999
REV_AT_EPOCH   = 63511
BSTAR          = .22216E-3
MEAN_MOTION_DOT = .378E-5
MEAN_MOTION_DDOT = 0

CCSDS_OMM_VERS = 2.0
CREATION_DATE  = 
ORIGINATOR     = 

OBJECT_NAME    = SL-16 R/B
OBJECT_ID      = 1994-023B
CENTER_NAME    = EARTH
REF_FRAME      = TEME
TIME_SYSTEM    = UTC
MEAN_ELEMENT_THEORY = SGP/SGP4

EPOCH          = 2025-12-31T00:03:06.198912
MEAN_MOTION    = 14.14998602
ECCENTRICITY   = .0002369
INCLINATION    = 70.9973
RA_OF_ASC_NODE = 215.1347
ARG_OF_PERICENTER = 358.1176
MEAN_ANOMALY   = 1.9937

EPHEMERIS_TYPE = 0
CLASSIFICATION_TYPE = U
NORAD_CAT_ID   = 23088
ELEMENT_SET_NO = 999
REV_AT_EPOCH   = 63637
BSTAR          = .41902E-4
MEAN_MOTION_DOT = .33E-6
MEAN_MOTION_DDOT = 0

CCSDS_OMM_VERS = 2.0
CREATION_DATE  = 
ORIGINATOR     = 

OBJECT_NAME    = SL-16 R/B
OBJECT_ID      = 1994-074B
CENTER_NAME    = EARTH
REF_FRAME      = TEME
TIME_SYSTEM    = UTC
MEAN_ELEMENT_THEORY = SGP/SGP4

EPOCH          = 2025-12-31T01:43:28.074144
MEAN_MOTION    = 14.79313661
ECCENTRICITY   = .0008053
INCLINATION    = 97.7184
RA_OF_ASC_NODE = 33.6461
ARG_OF_PERICENTER = 86.1099
MEAN_ANOMALY   = 328.0003

EPHEMERIS_TYPE = 0
CLASSIFICATION_TYPE = U
NORAD_CAT_ID   = 23343
ELEMENT_SET_NO = 999
REV_AT_EPOCH   = 67710
BSTAR          = .12937E-3
MEAN_MOTION_DOT = .914E-5
MEAN_MOTION_DDOT = 0

CCSDS_OMM_VERS = 2.0
CREATION_DATE  = 
ORIGINATOR     = 

OBJECT_NAME    = SL-16 R/B
OBJECT_ID      = 1994-077B
CENTER_NAME    = EARTH
REF_FRAME      = TEME
TIME_SYSTEM    = UTC
MEAN_ELEMENT_THEORY = SGP/SGP4

EPOCH          = 2025-12-31T01:56:57.664608
MEAN_MOTION    = 14.15550525
ECCENTRICITY   = .0005025
INCLINATION    = 70.9827
RA_OF_ASC_NODE = 136.8286
ARG_OF_PERICENTER = 269.4618
MEAN_ANOMALY   = 90.5929

EPHEMERIS_TYPE = 0
CLASSIFICATION_TYPE = U
NORAD_CAT_ID   = 23405
ELEMENT_SET_NO = 999
REV_AT_EPOCH   = 60652
BSTAR          = -.84265E-4
MEAN_MOTION_DOT = -.213E-5
MEAN_MOTION_DDOT = 0

CCSDS_OMM_VERS = 2.0
CREATION_DATE  = 
ORIGINATOR     = 

OBJECT_NAME    = ARIANE 40+ R/B
OBJECT_ID      = 1995-021B
CENTER_NAME    = EARTH
REF_FRAME      = TEME
TIME_SYSTEM    = UTC
MEAN_ELEMENT_THEORY = SGP/SGP4

EPOCH          = 2025-12-31T03:41:34.622880
MEAN_MOTION    = 14.39711631
ECCENTRICITY   = .0006505
INCLINATION    = 98.4627
RA_OF_ASC_NODE = 72.5186
ARG_OF_PERICENTER = 356.8223
MEAN_ANOMALY   = 64.6603

EPHEMERIS_TYPE = 0
CLASSIFICATION_TYPE = U
NORAD_CAT_ID   = 23561
ELEMENT_SET_NO = 999
REV_AT_EPOCH   = 60938
BSTAR          = .20287E-3
MEAN_MOTION_DOT = .592E-5
MEAN_MOTION_DDOT = 0

CCSDS_OMM_VERS = 2.0
CREATION_DATE  = 
ORIGINATOR     = 

OBJECT_NAME    = SL-16 R/B
OBJECT_ID      = 1995-058B
CENTER_NAME    = EARTH
REF_FRAME      = TEME
TIME_SYSTEM    = UTC
MEAN_ELEMENT_THEORY = SGP/SGP4

EPOCH          = 2025-12-31T02:02:10.176864
MEAN_MOTION    = 14.15482373
ECCENTRICITY   = .0014368
INCLINATION    = 71.0221
RA_OF_ASC_NODE = 324.2882
ARG_OF_PERICENTER = 230.5950
MEAN_ANOMALY   = 129.3902

EPHEMERIS_TYPE = 0
CLASSIFICATION_TYPE = U
NORAD_CAT_ID   = 23705
ELEMENT_SET_NO = 999
REV_AT_EPOCH   = 55814
BSTAR          = .12065E-3
MEAN_MOTION_DOT = .188E-5
MEAN_MOTION_DDOT = 0

CCSDS_OMM_VERS = 2.0
CREATION_DATE  = 
ORIGINATOR     = 

OBJECT_NAME    = SL-16 R/B
OBJECT_ID      = 1996-051B
CENTER_NAME    = EARTH
REF_FRAME      = TEME
TIME_SYSTEM    = UTC
MEAN_ELEMENT_THEORY = SGP/SGP4

EPOCH          = 2025-12-31T02:45:21.832128
MEAN_MOTION    = 14.12398626
ECCENTRICITY   = .0019429
INCLINATION    = 70.7598
RA_OF_ASC_NODE = 320.3887
ARG_OF_PERICENTER = 238.7973
MEAN_ANOMALY   = 121.1242

EPHEMERIS_TYPE = 0
CLASSIFICATION_TYPE = U
NORAD_CAT_ID   = 24298
ELEMENT_SET_NO = 999
REV_AT_EPOCH   = 51196
BSTAR          = .49022E-4
MEAN_MOTION_DOT = .41E-6
MEAN_MOTION_DDOT = 0

CCSDS_OMM_VERS = 2.0
CREATION_DATE  = 
ORIGINATOR     = 

OBJECT_NAME    = ORBVIEW 2 (SEASTAR)
OBJECT_ID      = 1997-037A
CENTER_NAME    = EARTH
REF_FRAME      = TEME
TIME_SYSTEM    = UTC
MEAN_ELEMENT_THEORY = SGP/SGP4

EPOCH          = 2025-12-31T00:55:46.801632
MEAN_MOTION    = 14.35432725
ECCENTRICITY   = .0001258
INCLINATION    = 98.8468
RA_OF_ASC_NODE = 162.5752
ARG_OF_PERICENTER = 256.5223
MEAN_ANOMALY   = 103.5822

EPHEMERIS_TYPE = 0
CLASSIFICATION_TYPE = U
NORAD_CAT_ID   = 24883
ELEMENT_SET_NO = 999
REV_AT_EPOCH   = 49862
BSTAR          = .2309E-3
MEAN_MOTION_DOT = .617E-5
MEAN_MOTION_DDOT = 0

