SL-16 R/B               
1 22566U 93016B   25365.15210308  .00000049  00000+0  49775-4 0  9999
2 22566  71.0088 359.1311 0008062  60.4163 299.7762 14.15295419692477
COSMOS 2242             
1 22626U 93024A   25365.02784765  .00003710  00000+0  32612-3 0  9993
2 22626  82.5191 332.3636 0016516 169.9922 190.1632 14.96194735770127
SL-16 R/B               
1 22803U 93059B   25364.87168359  .00000108  00000+0  77297-4 0  9992
2 22803  70.9898 156.2507 0018943 310.0891  49.8571 14.17219147669788
ARIANE 40 R/B           
1 22830U 93061H   25365.19388832  .00000515  00000+0  20438-3 0  9997
2 22830  98.5049  70.3858 0011691 124.5023 235.7267 14.32815620684291
COSMOS 2278             
1 23087U 94023A   25365.13661514  .00000378  00000+0  22216-3 0  9999
2 23087  71.0539 318.5204 0007568 146.1756 213.9851 14.14352026635119
SL-16 R/B               
1 23088U 94023B   25365.00215508  .00000033  00000+0  41902-4 0  9996
2 23088  70.9973 215.1347 0002369 358.1176   1.9937 14.14998602636370
SL-16 R/B               
1 23343U 94074B   25365.07185271  .00000914  00000+0  12937-3 0  9999
2 23343  97.7184  33.6461 0008053  86.1099 328.0003 14.79313661677103
SL-16 R/B               
1 23405U 94077B   25365.08122297 -.00000213  00000+0 -84265-4 0  9999
2 23405  70.9827 136.8286 0005025 269.4618  90.5929 14.15550525606527
ARIANE 40+ R/B          
1 23561U 95021B   25365.15387295  .00000592  00000+0  20287-3 0  9992
2 23561  98.4627  72.5186 0006505 356.8223  64.6603 14.39711631609386
SL-16 R/B               
1 23705U 95058B   25365.08484001  .00000188  00000+0  12065-3 0  9993
2 23705  71.0221 324.2882 0014368 230.5950 129.3902 14.15482373558144
SL-16 R/B               
1 24298U 96051B   25365.11483602  .00000041  00000+0  49022-4 0  9997
2 24298  70.7598 320.3887 0019429 238.7973 121.1242 14.12398626511965
ORBVIEW 2 (SEASTAR)     
1 24883U 97037A   25365.03873613  .00000617  00000+0  23090-3 0  9993
2 24883  98.8468 162.5752 0001258 256.5223 103.5822 14.35432725498625
